start=new Date('2022-07-21T00:00:00.000Z').valueOf();
sats=[{"EPOCH":"2022-07-20T10:47:19.842144","OBJECT_ID":"2021-038BA","ECCENTRICITY":"0.00017450","PERIOD":"95.592","REV_AT_EPOCH":"6769","TLE_LINE1":"1 48401U 21038BA  22201.44953521  .00001266  00000-0  10389-3 0  9990","CLASSIFICATION_TYPE":"U","SITE":"AFETR","INCLINATION":"53.0537","COUNTRY_CODE":"US","LAUNCH_DATE":"2021-05-04","SEMIMAJOR_AXIS":"6925.340","PERIAPSIS":"545.996","OBJECT_TYPE":"PAYLOAD","BSTAR":"0.00010389000000","MEAN_MOTION_DOT":"0.00001266","ARG_OF_PERICENTER":"50.1768","RCS_SIZE":"LARGE","MEAN_MOTION":"15.06402902","DECAY_DATE":null,"MEAN_MOTION_DDOT":"0.0000000000000","REF_FRAME":"TEME","TIME_SYSTEM":"UTC","GP_ID":"208479788","TLE_LINE2":"2 48401  53.0537 184.3391 0001745  50.1768 309.9374 15.06402902 67697","CENTER_NAME":"EARTH","APOAPSIS":"548.413","OBJECT_NAME":"STARLINK-2571","RA_OF_ASC_NODE":"184.3391","MEAN_ELEMENT_THEORY":"SGP4","MEAN_ANOMALY":"309.9374","ELEMENT_SET_NO":"999","FILE":"3518048","EPHEMERIS_TYPE":"0","NORAD_CAT_ID":"48401"},{"CENTER_NAME":"EARTH","TLE_LINE2":"2 48402  53.0540 185.0982 0001846  61.5346 298.5829 15.06400811 67084","GP_ID":"208503232","TIME_SYSTEM":"UTC","REF_FRAME":"TEME","MEAN_MOTION_DDOT":"0.0000000000000","MEAN_MOTION":"15.06400811","DECAY_DATE":null,"FILE":"3518111","MEAN_ANOMALY":"298.5829","ELEMENT_SET_NO":"999","MEAN_ELEMENT_THEORY":"SGP4","NORAD_CAT_ID":"48402","EPHEMERIS_TYPE":"0","APOAPSIS":"548.489","RA_OF_ASC_NODE":"185.0982","OBJECT_NAME":"STARLINK-2560","COUNTRY_CODE":"US","INCLINATION":"53.0540","PERIOD":"95.592","ECCENTRICITY":"0.00018460","EPOCH":"2022-07-20T06:36:30.465504","OBJECT_ID":"2021-038BB","CLASSIFICATION_TYPE":"U","SITE":"AFETR","TLE_LINE1":"1 48402U 21038BB  22201.27535261  .00001998  00000-0  15297-3 0  9994","REV_AT_EPOCH":"6708","ARG_OF_PERICENTER":"61.5346","OBJECT_TYPE":"PAYLOAD","PERIAPSIS":"545.933","BSTAR":"0.00015297000000","MEAN_MOTION_DOT":"0.00001998","RCS_SIZE":"LARGE","SEMIMAJOR_AXIS":"6925.346","LAUNCH_DATE":"2021-05-04"},{"EPHEMERIS_TYPE":"0","NORAD_CAT_ID":"48403","MEAN_ANOMALY":"296.0264","ELEMENT_SET_NO":"999","MEAN_ELEMENT_THEORY":"SGP4","FILE":"3518268","OBJECT_NAME":"STARLINK-2561","RA_OF_ASC_NODE":"185.1269","APOAPSIS":"548.451","GP_ID":"208510983","TLE_LINE2":"2 48403  53.0553 185.1269 0001773  64.0908 296.0264 15.06396888 67678","CENTER_NAME":"EARTH","DECAY_DATE":null,"MEAN_MOTION":"15.06396888","TIME_SYSTEM":"UTC","REF_FRAME":"TEME","MEAN_MOTION_DDOT":"0.0000000000000","RCS_SIZE":"LARGE","MEAN_MOTION_DOT":"0.00000970","OBJECT_TYPE":"PAYLOAD","PERIAPSIS":"545.995","BSTAR":"0.00008403500000","ARG_OF_PERICENTER":"64.0908","SEMIMAJOR_AXIS":"6925.358","LAUNCH_DATE":"2021-05-04","INCLINATION":"53.0553","COUNTRY_CODE":"US","REV_AT_EPOCH":"6767","CLASSIFICATION_TYPE":"U","SITE":"AFETR","TLE_LINE1":"1 48403U 21038BC  22201.27261429  .00000970  00000-0  84035-4 0  9993","OBJECT_ID":"2021-038BC","EPOCH":"2022-07-20T06:32:33.874656","ECCENTRICITY":"0.00017730","PERIOD":"95.592"},{"APOAPSIS":"548.225","RA_OF_ASC_NODE":"183.0595","OBJECT_NAME":"STARLINK-2593","FILE":"3518363","MEAN_ELEMENT_THEORY":"SGP4","MEAN_ANOMALY":"297.9148","ELEMENT_SET_NO":"999","NORAD_CAT_ID":"48404","EPHEMERIS_TYPE":"0","MEAN_MOTION_DDOT":"0.0000000000000","TIME_SYSTEM":"UTC","REF_FRAME":"TEME","DECAY_DATE":null,"MEAN_MOTION":"15.06399124","CENTER_NAME":"EARTH","TLE_LINE2":"2 48404  53.0545 183.0595 0001457  62.1988 297.9148 15.06399124 67155","GP_ID":"208533466","LAUNCH_DATE":"2021-05-04","SEMIMAJOR_AXIS":"6925.351","ARG_OF_PERICENTER":"62.1988","BSTAR":"0.00006508600000","OBJECT_TYPE":"PAYLOAD","PERIAPSIS":"546.207","MEAN_MOTION_DOT":"0.00000688","RCS_SIZE":"LARGE","PERIOD":"95.592","ECCENTRICITY":"0.00014570","EPOCH":"2022-07-20T17:36:01.465920","OBJECT_ID":"2021-038BD","TLE_LINE1":"1 48404U 21038BD  22201.73335030  .00000688  00000-0  65086-4 0  9996","SITE":"AFETR","CLASSIFICATION_TYPE":"U","REV_AT_EPOCH":"6715","COUNTRY_CODE":"US","INCLINATION":"53.0545"},{"OBJECT_TYPE":"PAYLOAD","BSTAR":"-0.00001621700000","PERIAPSIS":"546.082","MEAN_MOTION_DOT":"-0.00000523","ARG_OF_PERICENTER":"46.8764","RCS_SIZE":"LARGE","SEMIMAJOR_AXIS":"6925.352","LAUNCH_DATE":"2021-05-04","INCLINATION":"53.0530","COUNTRY_CODE":"US","EPOCH":"2022-07-20T09:33:02.348640","OBJECT_ID":"2021-038BE","PERIOD":"95.592","ECCENTRICITY":"0.00016390","REV_AT_EPOCH":"6710","SITE":"AFETR","CLASSIFICATION_TYPE":"U","TLE_LINE1":"1 48405U 21038BE  22201.39794385 -.00000523  00000-0 -16217-4 0  9993","ELEMENT_SET_NO":"999","MEAN_ANOMALY":"313.2362","MEAN_ELEMENT_THEORY":"SGP4","FILE":"3518111","EPHEMERIS_TYPE":"0","NORAD_CAT_ID":"48405","APOAPSIS":"548.352","OBJECT_NAME":"STARLINK-2570","RA_OF_ASC_NODE":"184.5490","GP_ID":"208502984","TLE_LINE2":"2 48405  53.0530 184.5490 0001639  46.8764 313.2362 15.06398785 67100","CENTER_NAME":"EARTH","MEAN_MOTION":"15.06398785","DECAY_DATE":null,"REF_FRAME":"TEME","TIME_SYSTEM":"UTC","MEAN_MOTION_DDOT":"0.0000000000000"},{"LAUNCH_DATE":"2021-05-04","SEMIMAJOR_AXIS":"6925.403","RCS_SIZE":"LARGE","ARG_OF_PERICENTER":"52.9095","PERIAPSIS":"545.944","OBJECT_TYPE":"PAYLOAD","BSTAR":"-0.00001508700000","MEAN_MOTION_DOT":"-0.00000506","TLE_LINE1":"1 48406U 21038BF  22201.32791621 -.00000506  00000-0 -15087-4 0  9992","SITE":"AFETR","CLASSIFICATION_TYPE":"U","REV_AT_EPOCH":"6709","ECCENTRICITY":"0.00019120","PERIOD":"95.593","OBJECT_ID":"2021-038BF","EPOCH":"2022-07-20T07:52:11.960544","COUNTRY_CODE":"US","INCLINATION":"53.0538","RA_OF_ASC_NODE":"184.8781","OBJECT_NAME":"STARLINK-2568","APOAPSIS":"548.592","NORAD_CAT_ID":"48406","EPHEMERIS_TYPE":"0","FILE":"3518111","MEAN_ELEMENT_THEORY":"SGP4","MEAN_ANOMALY":"307.2069","ELEMENT_SET_NO":"999","MEAN_MOTION_DDOT":"0.0000000000000","REF_FRAME":"TEME","TIME_SYSTEM":"UTC","MEAN_MOTION":"15.06382262","DECAY_DATE":null,"CENTER_NAME":"EARTH","TLE_LINE2":"2 48406  53.0538 184.8781 0001912  52.9095 307.2069 15.06382262 67092","GP_ID":"208502732"},{"MEAN_MOTION":"15.06432222","DECAY_DATE":null,"REF_FRAME":"TEME","TIME_SYSTEM":"UTC","MEAN_MOTION_DDOT":"0.0000000000000","GP_ID":"208503485","TLE_LINE2":"2 48407  53.0542 184.2775 0001670  50.9382 309.1755 15.06432222 67694","CENTER_NAME":"EARTH","APOAPSIS":"548.271","OBJECT_NAME":"STARLINK-2595","RA_OF_ASC_NODE":"184.2775","ELEMENT_SET_NO":"999","MEAN_ANOMALY":"309.1755","MEAN_ELEMENT_THEORY":"SGP4","FILE":"3518111","EPHEMERIS_TYPE":"0","NORAD_CAT_ID":"48407","OBJECT_ID":"2021-038BG","EPOCH":"2022-07-20T10:57:56.045088","ECCENTRICITY":"0.00016700","PERIOD":"95.590","REV_AT_EPOCH":"6769","SITE":"AFETR","CLASSIFICATION_TYPE":"U","TLE_LINE1":"1 48407U 21038BG  22201.45689867 -.00008021  00000-0 -51970-3 0  9995","INCLINATION":"53.0542","COUNTRY_CODE":"US","SEMIMAJOR_AXIS":"6925.250","LAUNCH_DATE":"2021-05-04","OBJECT_TYPE":"PAYLOAD","MEAN_MOTION_DOT":"-0.00008021","PERIAPSIS":"545.958","BSTAR":"-0.00051970000000","ARG_OF_PERICENTER":"50.9382","RCS_SIZE":"LARGE"},{"TLE_LINE2":"2 48408  53.0553 182.5264 0001295  89.2414 270.8724 15.06395852 67164","CENTER_NAME":"EARTH","GP_ID":"208533967","TIME_SYSTEM":"UTC","REF_FRAME":"TEME","MEAN_MOTION_DDOT":"0.0000000000000","MEAN_MOTION":"15.06395852","DECAY_DATE":null,"NORAD_CAT_ID":"48408","EPHEMERIS_TYPE":"0","FILE":"3518363","ELEMENT_SET_NO":"999","MEAN_ANOMALY":"270.8724","MEAN_ELEMENT_THEORY":"SGP4","RA_OF_ASC_NODE":"182.5264","OBJECT_NAME":"STARLINK-2592","APOAPSIS":"548.123","COUNTRY_CODE":"US","INCLINATION":"53.0553","SITE":"AFETR","CLASSIFICATION_TYPE":"U","TLE_LINE1":"1 48408U 21038BH  22201.85130659 -.00000928  00000-0 -43419-4 0  9998","REV_AT_EPOCH":"6716","PERIOD":"95.592","ECCENTRICITY":"0.00012950","OBJECT_ID":"2021-038BH","EPOCH":"2022-07-20T20:25:52.889376","RCS_SIZE":"LARGE","ARG_OF_PERICENTER":"89.2414","PERIAPSIS":"546.329","OBJECT_TYPE":"PAYLOAD","BSTAR":"-0.00004341900000","MEAN_MOTION_DOT":"-0.00000928","SEMIMAJOR_AXIS":"6925.361","LAUNCH_DATE":"2021-05-04"},{"LAUNCH_DATE":"2021-05-04","SEMIMAJOR_AXIS":"6925.376","RCS_SIZE":"LARGE","OBJECT_TYPE":"PAYLOAD","PERIAPSIS":"545.858","MEAN_MOTION_DOT":"0.00000215","BSTAR":"0.00003336400000","ARG_OF_PERICENTER":"56.7236","REV_AT_EPOCH":"6703","TLE_LINE1":"1 48409U 21038BJ  22201.34403089  .00000215  00000-0  33364-4 0  9998","CLASSIFICATION_TYPE":"U","SITE":"AFETR","OBJECT_ID":"2021-038BJ","EPOCH":"2022-07-20T08:15:24.268896","PERIOD":"95.593","ECCENTRICITY":"0.00019970","INCLINATION":"53.0541","COUNTRY_CODE":"US","OBJECT_NAME":"STARLINK-2596","RA_OF_ASC_NODE":"189.8072","APOAPSIS":"548.624","EPHEMERIS_TYPE":"0","NORAD_CAT_ID":"48409","MEAN_ELEMENT_THEORY":"SGP4","MEAN_ANOMALY":"303.3944","ELEMENT_SET_NO":"999","FILE":"3518111","MEAN_MOTION":"15.06391008","DECAY_DATE":null,"MEAN_MOTION_DDOT":"0.0000000000000","REF_FRAME":"TEME","TIME_SYSTEM":"UTC","GP_ID":"208502484","TLE_LINE2":"2 48409  53.0541 189.8072 0001997  56.7236 303.3944 15.06391008 67030","CENTER_NAME":"EARTH"},{"OBJECT_NAME":"STARLINK-2563","RA_OF_ASC_NODE":"138.8928","APOAPSIS":"548.616","EPHEMERIS_TYPE":"0","NORAD_CAT_ID":"48410","ELEMENT_SET_NO":"999","MEAN_ANOMALY":"300.9210","MEAN_ELEMENT_THEORY":"SGP4","FILE":"3518289","MEAN_MOTION":"15.06394999","DECAY_DATE":null,"REF_FRAME":"TEME","TIME_SYSTEM":"UTC","MEAN_MOTION_DDOT":"0.0000000000000","GP_ID":"208511725","CENTER_NAME":"EARTH","TLE_LINE2":"2 48410  53.0554 138.8928 0002003  59.1976 300.9210 15.06394999 68332","SEMIMAJOR_AXIS":"6925.364","LAUNCH_DATE":"2021-05-04","RCS_SIZE":"LARGE","MEAN_MOTION_DOT":"0.00001193","OBJECT_TYPE":"PAYLOAD","PERIAPSIS":"545.842","BSTAR":"0.00009903100000","ARG_OF_PERICENTER":"59.1976","REV_AT_EPOCH":"6833","SITE":"AFETR","CLASSIFICATION_TYPE":"U","TLE_LINE1":"1 48410U 21038BK  22201.54767277  .00001193  00000-0  99031-4 0  9993","OBJECT_ID":"2021-038BK","EPOCH":"2022-07-20T13:08:38.927328","PERIOD":"95.592","ECCENTRICITY":"0.00020030","INCLINATION":"53.0554","COUNTRY_CODE":"US"}];
